{"type": "FeatureCollection", "features": [ {"type": "Feature", "properties": {"norad_id": 42741, "name": "EUTELSAT 172B", "group": "eutelsat", "lat": -0.002084236146624301, "lon": -23.70882545656928, "alt_km": 35786.92280266907, "timestamp": "2025-12-08T05:48:08.718923+00:00", "meta": {"OBJECT_NAME": "EUTELSAT 172B", "OBJECT_ID": "2017-029B", "EPOCH": "2025-12-07T21:18:06.958656", "MEAN_MOTION": 1.00269558, "ECCENTRICITY": 1.966e-05, "INCLINATION": 0.0106, "RA_OF_ASC_NODE": 83.9614, "ARG_OF_PERICENTER": 146.0074, "MEAN_ANOMALY": 338.4721, "EPHEMERIS_TYPE": 0, "CLASSIFICATION_TYPE": "U", "NORAD_CAT_ID": 42741, "ELEMENT_SET_NO": 999, "REV_AT_EPOCH": 3181, "BSTAR": 0, "MEAN_MOTION_DOT": -3e-08, "MEAN_MOTION_DDOT": 0}, "tle": {"line1": "1 42741U 17029B   25341.88758054 -.00000003  00000+0  00000+0 0  9999", "line2": "2 42741   0.0106  83.9614 0000196 146.0074 338.4721  1.00269558 31813"}}, "geometry": {"type": "Point", "coordinates": [-23.70882545656928, -0.002084236146624301]}}, {"type": "Feature", "properties": {"norad_id": 44334, "name": "EUTELSAT 7C", "group": "eutelsat", "lat": -0.018466240370659397, "lon": 171.2240225623064, "alt_km": 35781.61051696436, "timestamp": "2025-12-08T05:48:08.718934+00:00", "meta": {"OBJECT_NAME": "EUTELSAT 7C", "OBJECT_ID": "2019-034B", "EPOCH": "2025-12-07T22:13:45.286176", "MEAN_MOTION": 1.00270379, "ECCENTRICITY": 0.00034358, "INCLINATION": 0.0741, "RA_OF_ASC_NODE": 178.5403, "ARG_OF_PERICENTER": 63.069, "MEAN_ANOMALY": 175.7504, "EPHEMERIS_TYPE": 0, "CLASSIFICATION_TYPE": "U", "NORAD_CAT_ID": 44334, "ELEMENT_SET_NO": 999, "REV_AT_EPOCH": 491, "BSTAR": 0, "MEAN_MOTION_DOT": 5.1e-07, "MEAN_MOTION_DDOT": 0}, "tle": {"line1": "1 44334U 19034B   25341.92621859  .00000051  00000+0  00000+0 0  9996", "line2": "2 44334   0.0741 178.5403 0003435  63.0690 175.7504  1.00270379  4911"}}, "geometry": {"type": "Point", "coordinates": [171.2240225623064, -0.018466240370659397]}}, {"type": "Feature", "properties": {"norad_id": 44624, "name": "EUTELSAT 5 WEST B", "group": "eutelsat", "lat": -0.00037224955664912735, "lon": 159.24214775011507, "alt_km": 35788.62182923317, "timestamp": "2025-12-08T05:48:08.718946+00:00", "meta": {"OBJECT_NAME": "EUTELSAT 5 WEST B", "OBJECT_ID": "2019-067A", "EPOCH": "2025-12-07T22:10:15.621024", "MEAN_MOTION": 1.00270758, "ECCENTRICITY": 0.00035675, "INCLINATION": 0.0653, "RA_OF_ASC_NODE": 338.5812, "ARG_OF_PERICENTER": 279.2547, "MEAN_ANOMALY": 146.6691, "EPHEMERIS_TYPE": 0, "CLASSIFICATION_TYPE": "U", "NORAD_CAT_ID": 44624, "ELEMENT_SET_NO": 999, "REV_AT_EPOCH": 2251, "BSTAR": 0, "MEAN_MOTION_DOT": -3.9e-07, "MEAN_MOTION_DDOT": 0}, "tle": {"line1": "1 44624U 19067A   25341.92379191 -.00000039  00000+0  00000+0 0  9990", "line2": "2 44624   0.0653 338.5812 0003567 279.2547 146.6691  1.00270758 22516"}}, "geometry": {"type": "Point", "coordinates": [159.24214775011507, -0.00037224955664912735]}}, {"type": "Feature", "properties": {"norad_id": 45027, "name": "EUTELSAT KONNECT", "group": "eutelsat", "lat": 0.06186617813943098, "lon": 171.44748701951406, "alt_km": 35789.91569260975, "timestamp": "2025-12-08T05:48:08.718957+00:00", "meta": {"OBJECT_NAME": "EUTELSAT KONNECT", "OBJECT_ID": "2020-005B", "EPOCH": "2025-12-07T22:13:45.286176", "MEAN_MOTION": 1.0026925, "ECCENTRICITY": 0.00018221, "INCLINATION": 0.0718, "RA_OF_ASC_NODE": 97.3504, "ARG_OF_PERICENTER": 188.4731, "MEAN_ANOMALY": 131.7427, "EPHEMERIS_TYPE": 0, "CLASSIFICATION_TYPE": "U", "NORAD_CAT_ID": 45027, "ELEMENT_SET_NO": 999, "REV_AT_EPOCH": 2241, "BSTAR": 0, "MEAN_MOTION_DOT": 5.2e-07, "MEAN_MOTION_DDOT": 0}, "tle": {"line1": "1 45027U 20005B   25341.92621859  .00000052  00000+0  00000+0 0  9997", "line2": "2 45027   0.0718  97.3504 0001822 188.4731 131.7427  1.00269250 22418"}}, "geometry": {"type": "Point", "coordinates": [171.44748701951406, 0.06186617813943098]}}, {"type": "Feature", "properties": {"norad_id": 49056, "name": "EUTELSAT QUANTUM", "group": "eutelsat", "lat": -0.003945628345954869, "lon": -148.0534061323455, "alt_km": 35777.75220405077, "timestamp": "2025-12-08T05:48:08.718968+00:00", "meta": {"OBJECT_NAME": "EUTELSAT QUANTUM", "OBJECT_ID": "2021-069B", "EPOCH": "2025-12-07T22:07:21.467136", "MEAN_MOTION": 1.00271283, "ECCENTRICITY": 0.00037074, "INCLINATION": 0.0312, "RA_OF_ASC_NODE": 50.9099, "ARG_OF_PERICENTER": 218.6445, "MEAN_ANOMALY": 186.9219, "EPHEMERIS_TYPE": 0, "CLASSIFICATION_TYPE": "U", "NORAD_CAT_ID": 49056, "ELEMENT_SET_NO": 999, "REV_AT_EPOCH": 1601, "BSTAR": 0, "MEAN_MOTION_DOT": 1.29e-06, "MEAN_MOTION_DDOT": 0}, "tle": {"line1": "1 49056U 21069B   25341.92177624  .00000129  00000+0  00000+0 0  9995", "line2": "2 49056   0.0312  50.9099 0003707 218.6445 186.9219  1.00271283 16019"}}, "geometry": {"type": "Point", "coordinates": [-148.0534061323455, -0.003945628345954869]}}, {"type": "Feature", "properties": {"norad_id": 53765, "name": "EUTELSAT KONNECT VHTS", "group": "eutelsat", "lat": 0.050641055386352815, "lon": 166.95918518274576, "alt_km": 35780.02431294211, "timestamp": "2025-12-08T05:48:08.718980+00:00", "meta": {"OBJECT_NAME": "EUTELSAT KONNECT VHTS", "OBJECT_ID": "2022-110A", "EPOCH": "2025-12-07T06:47:54.253248", "MEAN_MOTION": 1.00271597, "ECCENTRICITY": 0.00030323, "INCLINATION": 0.0619, "RA_OF_ASC_NODE": 106.3169, "ARG_OF_PERICENTER": 122.232, "MEAN_ANOMALY": 312.4415, "EPHEMERIS_TYPE": 0, "CLASSIFICATION_TYPE": "U", "NORAD_CAT_ID": 53765, "ELEMENT_SET_NO": 999, "REV_AT_EPOCH": 490, "BSTAR": 0, "MEAN_MOTION_DOT": 2.2e-07, "MEAN_MOTION_DDOT": 0}, "tle": {"line1": "1 53765U 22110A   25341.28326682  .00000022  00000+0  00000+0 0  9996", "line2": "2 53765   0.0619 106.3169 0003032 122.2320 312.4415  1.00271597  4905"}}, "geometry": {"type": "Point", "coordinates": [166.95918518274576, 0.050641055386352815]}}, {"type": "Feature", "properties": {"norad_id": 54048, "name": "EUTELSAT HOTBIRD 13F", "group": "eutelsat", "lat": -0.0489317435955102, "lon": 177.2956413489711, "alt_km": 35794.85121597189, "timestamp": "2025-12-08T05:48:08.718992+00:00", "meta": {"OBJECT_NAME": "EUTELSAT HOTBIRD 13F", "OBJECT_ID": "2022-134A", "EPOCH": "2025-12-07T22:15:22.631328", "MEAN_MOTION": 1.0027244, "ECCENTRICITY": 0.00021456, "INCLINATION": 0.0473, "RA_OF_ASC_NODE": 293.1939, "ARG_OF_PERICENTER": 59.575, "MEAN_ANOMALY": 71.0316, "EPHEMERIS_TYPE": 0, "CLASSIFICATION_TYPE": "U", "NORAD_CAT_ID": 54048, "ELEMENT_SET_NO": 999, "REV_AT_EPOCH": 1145, "BSTAR": 0, "MEAN_MOTION_DOT": 9e-07, "MEAN_MOTION_DDOT": 0}, "tle": {"line1": "1 54048U 22134A   25341.92734527  .00000090  00000+0  00000+0 0  9994", "line2": "2 54048   0.0473 293.1939 0002145  59.5750  71.0316  1.00272440 11455"}}, "geometry": {"type": "Point", "coordinates": [177.2956413489711, -0.0489317435955102]}}, {"type": "Feature", "properties": {"norad_id": 54225, "name": "EUTELSAT HOTBIRD 13G", "group": "eutelsat", "lat": -0.040640952309012476, "lon": 177.26951122621358, "alt_km": 35778.5762487247, "timestamp": "2025-12-08T05:48:08.719003+00:00", "meta": {"OBJECT_NAME": "EUTELSAT HOTBIRD 13G", "OBJECT_ID": "2022-146A", "EPOCH": "2025-12-07T15:24:34.772832", "MEAN_MOTION": 1.00270103, "ECCENTRICITY": 0.00019265, "INCLINATION": 0.048, "RA_OF_ASC_NODE": 235.4719, "ARG_OF_PERICENTER": 313.1992, "MEAN_ANOMALY": 132.1292, "EPHEMERIS_TYPE": 0, "CLASSIFICATION_TYPE": "U", "NORAD_CAT_ID": 54225, "ELEMENT_SET_NO": 999, "REV_AT_EPOCH": 554, "BSTAR": 0, "MEAN_MOTION_DOT": 9.1e-07, "MEAN_MOTION_DDOT": 0}, "tle": {"line1": "1 54225U 22146A   25341.64206913  .00000091  00000+0  00000+0 0  9997", "line2": "2 54225   0.0480 235.4719 0001926 313.1992 132.1292  1.00270103  5547"}}, "geometry": {"type": "Point", "coordinates": [177.26951122621358, -0.040640952309012476]}}, {"type": "Feature", "properties": {"norad_id": 54259, "name": "EUTELSAT 10B", "group": "eutelsat", "lat": 0.049315973723890176, "lon": 174.27508106466746, "alt_km": 35778.69648451865, "timestamp": "2025-12-08T05:48:08.719015+00:00", "meta": {"OBJECT_NAME": "EUTELSAT 10B", "OBJECT_ID": "2022-157A", "EPOCH": "2025-12-07T22:14:30.215040", "MEAN_MOTION": 1.00277457, "ECCENTRICITY": 0.00013965, "INCLINATION": 0.0613, "RA_OF_ASC_NODE": 101.8318, "ARG_OF_PERICENTER": 82.7656, "MEAN_ANOMALY": 235.9586, "EPHEMERIS_TYPE": 0, "CLASSIFICATION_TYPE": "U", "NORAD_CAT_ID": 54259, "ELEMENT_SET_NO": 999, "REV_AT_EPOCH": 1110, "BSTAR": 0, "MEAN_MOTION_DOT": 7.2e-07, "MEAN_MOTION_DDOT": 0}, "tle": {"line1": "1 54259U 22157A   25341.92673860  .00000072  00000+0  00000+0 0  9995", "line2": "2 54259   0.0613 101.8318 0001396  82.7656 235.9586  1.00277457 11106"}}, "geometry": {"type": "Point", "coordinates": [174.27508106466746, 0.049315973723890176]}}, {"type": "Feature", "properties": {"norad_id": 59346, "name": "EUTELSAT 36D", "group": "eutelsat", "lat": -0.021296498648673556, "lon": -159.86721968925616, "alt_km": 35787.241427640954, "timestamp": "2025-12-08T05:48:08.719031+00:00", "meta": {"OBJECT_NAME": "EUTELSAT 36D", "OBJECT_ID": "2024-059A", "EPOCH": "2025-12-07T13:48:21.486816", "MEAN_MOTION": 1.00269502, "ECCENTRICITY": 5.157e-05, "INCLINATION": 0.0194, "RA_OF_ASC_NODE": 354.4859, "ARG_OF_PERICENTER": 312.0912, "MEAN_ANOMALY": 12.9682, "EPHEMERIS_TYPE": 0, "CLASSIFICATION_TYPE": "U", "NORAD_CAT_ID": 59346, "ELEMENT_SET_NO": 999, "REV_AT_EPOCH": 622, "BSTAR": 0, "MEAN_MOTION_DOT": 0, "MEAN_MOTION_DDOT": 0}, "tle": {"line1": "1 59346U 24059A   25341.57524869  .00000000  00000+0  00000+0 0  9996", "line2": "2 59346   0.0194 354.4859 0000515 312.0912  12.9682  1.00269502  6223"}}, "geometry": {"type": "Point", "coordinates": [-159.86721968925616, -0.021296498648673556]}}]}